NORAD_CAT_ID,OBJECT_NAME,OBJECT_TYPE,EPOCH,MEAN_MOTION,ECCENTRICITY,INCLINATION,RA_OF_ASC_NODE,ARG_OF_PERICENTER,MEAN_ANOMALY,BSTAR,MEAN_MOTION_DOT,MEAN_MOTION_DDOT,TLE_LINE0,TLE_LINE1,TLE_LINE2,SEMIMAJOR_AXIS,PERIOD,APOGEE,PERIGEE,DECAYED
54763.0,STARLINK-5191,PAYLOAD,2024-03-24 22:30:31,15.08845265,0.0001189,53.2202,12.9133,97.8641,262.2486,0.00019484,2.815e-05,0.0,0 STARLINK-5191,1 54763U 22175F   24084.93787000  .00002815  00000-0  19484-3 0  9999,2 54763  53.2202  12.9133 0001189  97.8641 262.2486 15.08845265 72018,6917.864,95.437,540.552,538.907,0.0
54763.0,STARLINK-5191,PAYLOAD,2024-03-25 19:10:29,15.08886104,0.000145,53.219,9.0557,92.0009,268.1149,6.8188e-05,7.99e-06,0.0,0 STARLINK-5191,1 54763U 22175F   24085.79895759  .00000799  00000-0  68188-4 0  9990,2 54763  53.2190   9.0557 0001450  92.0009 268.1149 15.08886104 69987,6917.739,95.435,540.608,538.601,0.0
54763.0,STARLINK-5191,PAYLOAD,2024-03-25 22:21:22,15.08798315,0.0001565,53.2189,8.4515,77.6481,282.4687,-0.00063419,-0.00010355,0.0,0 STARLINK-5191,1 54763U 22175F   24085.93150835 -.00010355  00000-0 -63419-3 0  9997,2 54763  53.2189   8.4515 0001565  77.6481 282.4687 15.08798315 72168,6918.008,95.44,540.955,538.79,0.0
54763.0,STARLINK-5191,PAYLOAD,2024-03-26 04:42:55,15.0879782,0.0001137,53.2189,7.2627,101.0442,259.0678,-0.00067348,-0.00010978,0.0,0 STARLINK-5191,1 54763U 22175F   24086.19647262 -.00010978  00000-0 -67348-3 0  9997,2 54763  53.2189   7.2627 0001137 101.0442 259.0678 15.08797820 70048,6918.009,95.44,540.661,539.088,0.0
54763.0,STARLINK-5191,PAYLOAD,2024-03-26 19:01:23,15.08795329,0.0001391,53.2199,4.5966,88.2044,271.9108,-0.00011841,-2.169e-05,0.0,0 STARLINK-5191,1 54763U 22175F   24086.79263198 -.00002169  00000-0 -11841-3 0  9995,2 54763  53.2199   4.5966 0001391  88.2044 271.9108 15.08795329 70134,6918.017,95.44,540.844,538.92,0.0
54763.0,STARLINK-5191,PAYLOAD,2024-03-26 22:12:06,15.08839375,0.0001829,53.2184,3.9918,110.8001,249.3187,0.00013024,1.785e-05,0.0,0 STARLINK-5191,1 54763U 22175F   24086.92508042  .00001785  00000-0  13024-3 0  9996,2 54763  53.2184   3.9918 0001829 110.8001 249.3187 15.08839375 72317,6917.882,95.438,541.013,538.482,0.0
54763.0,STARLINK-5191,PAYLOAD,2024-03-27 01:22:52,15.08846988,0.00015,53.2187,3.3989,95.2039,264.9125,0.0002118,3.085e-05,0.0,0 STARLINK-5191,1 54763U 22175F   24087.05755513  .00003085  00000-0  21180-3 0  9995,2 54763  53.2187   3.3989 0001500  95.2039 264.9125 15.08846988 70170,6917.859,95.437,540.762,538.686,0.0
54763.0,STARLINK-5191,PAYLOAD,2024-03-27 10:55:10,15.0886091,0.0001564,53.2201,1.6151,98.0264,262.0906,0.00023543,3.463e-05,0.0,0 STARLINK-5191,1 54763U 22175F   24087.45498172  .00003463  00000-0  23543-3 0  9999,2 54763  53.2201   1.6151 0001564  98.0264 262.0906 15.08860910 70234,6917.816,95.436,540.763,538.6,0.0
54763.0,STARLINK-5191,PAYLOAD,2024-03-27 18:52:07,15.0880793,0.0001557,53.2189,0.1264,74.5636,285.5528,0.00059805,9.234e-05,0.0,0 STARLINK-5191,1 54763U 22175F   24087.78619611  .00009234  00000-0  59805-3 0  9990,2 54763  53.2189   0.1264 0001557  74.5636 285.5528 15.08807930 70280,6917.978,95.44,540.921,538.766,0.0
54763.0,STARLINK-5191,PAYLOAD,2024-03-27 22:02:52,15.08826878,0.000156,53.2187,359.5316,113.9974,246.1181,0.00072764,0.00011307,0.0,0 STARLINK-5191,1 54763U 22175F   24087.91866172  .00011307  00000-0  72764-3 0  9994,2 54763  53.2187 359.5316 0001560 113.9974 246.1181 15.08826878 72466,6917.92,95.438,540.865,538.706,0.0
54763.0,STARLINK-5191,PAYLOAD,2024-03-28 01:13:38,15.08830613,0.0001107,53.2184,358.9379,67.8044,292.3066,0.00074131,0.00011527,0.0,0 STARLINK-5191,1 54763U 22175F   24088.05114241  .00011527  00000-0  74131-3 0  9997,2 54763  53.2184 358.9379 0001107  67.8044 292.3066 15.08830613 70327,6917.909,95.438,540.54,539.008,0.0
54763.0,STARLINK-5191,PAYLOAD,2024-03-28 10:45:57,15.08841102,0.0001062,53.2181,357.1566,85.9898,274.1215,0.00064991,0.00010071,0.0,0 STARLINK-5191,1 54763U 22175F   24088.44858037  .00010071  00000-0  64991-3 0  9994,2 54763  53.2181 357.1566 0001062  85.9898 274.1215 15.08841102 72546,6917.877,95.437,540.477,539.007,0.0
54763.0,STARLINK-5191,PAYLOAD,2024-03-28 21:53:42,15.08827948,0.0001249,53.2178,355.0762,104.8183,255.2948,-0.00023416,-4.011e-05,0.0,0 STARLINK-5191,1 54763U 22175F   24088.91229738 -.00004011  00000-0 -23416-3 0  9992,2 54763  53.2178 355.0762 0001249 104.8183 255.2948 15.08827948 72615,6917.917,95.438,540.646,538.918,0.0
54763.0,STARLINK-5191,PAYLOAD,2024-03-29 02:39:51,15.08843013,0.0001306,53.2191,354.1797,102.6177,257.4961,-0.00018541,-3.238e-05,0.0,0 STARLINK-5191,1 54763U 22175F   24089.11100695 -.00003238  00000-0 -18541-3 0  9998,2 54763  53.2191 354.1797 0001306 102.6177 257.4961 15.08843013 70484,6917.871,95.437,540.64,538.833,0.0
54763.0,STARLINK-5191,PAYLOAD,2024-03-29 10:36:45,15.08852392,0.0001566,53.2204,352.6953,91.1506,268.9666,-0.0001047,-1.955e-05,0.0,0 STARLINK-5191,1 54763U 22175F   24089.44219767 -.00001955  00000-0 -10470-3 0  9992,2 54763  53.2204 352.6953 0001566  91.1506 268.9666 15.08852392 70537,6917.843,95.437,540.791,538.624,0.0
54763.0,STARLINK-5191,PAYLOAD,2024-03-29 21:44:29,15.08829058,0.0001601,53.2191,350.6132,83.9071,276.2104,-0.00016885,-2.973e-05,0.0,0 STARLINK-5191,1 54763U 22175F   24089.90589522 -.00002973  00000-0 -16885-3 0  9999,2 54763  53.2191 350.6132 0001601  83.9071 276.2104 15.08829058 72764,6917.914,95.438,540.886,538.671,0.0
54763.0,STARLINK-5191,PAYLOAD,2024-03-30 02:30:38,15.08838123,0.000126,53.2184,349.7232,95.0427,265.0709,-0.00022867,-3.925e-05,0.0,0 STARLINK-5191,1 54763U 22175F   24090.10460976 -.00003925  00000-0 -22867-3 0  9999,2 54763  53.2184 349.7232 0001260  95.0427 265.0709 15.08838123 70630,6917.886,95.438,540.623,538.879,0.0
54763.0,STARLINK-5191,PAYLOAD,2024-03-30 10:27:33,15.08845989,0.0001219,53.2187,348.2358,93.128,266.9852,-0.00013997,-2.515e-05,0.0,0 STARLINK-5191,1 54763U 22175F   24090.43580211 -.00002515  00000-0 -13997-3 0  9998,2 54763  53.2187 348.2358 0001219  93.1280 266.9852 15.08845989 70688,6917.862,95.437,540.57,538.884,0.0
54763.0,STARLINK-5191,PAYLOAD,2024-03-30 23:10:38,15.08835262,0.0001239,53.2184,345.8568,100.3669,259.7462,0.00034585,5.22e-05,0.0,0 STARLINK-5191,1 54763U 22175F   24090.96572480  .00005220  00000-0  34585-3 0  9995,2 54763  53.2184 345.8568 0001239 100.3669 259.7462 15.08835262 72924,6917.895,95.438,540.617,538.903,0.0
54763.0,STARLINK-5191,PAYLOAD,2024-03-31 10:18:19,15.0886131,0.0001223,53.218,343.775,102.0467,258.0663,0.00057393,8.863e-05,0.0,0 STARLINK-5191,1 54763U 22175F   24091.42939710  .00008863  00000-0  57393-3 0  9998,2 54763  53.2180 343.7750 0001223 102.0467 258.0663 15.08861310 70834,6917.815,95.436,540.526,538.834,0.0
54763.0,STARLINK-5191,PAYLOAD,2024-03-31 23:01:25,15.0884544,0.0001109,53.2174,341.3956,93.0647,267.0472,0.00031423,4.717e-05,0.0,0 STARLINK-5191,1 54763U 22175F   24091.95932491  .00004717  00000-0  31423-3 0  9995,2 54763  53.2174 341.3956 0001109  93.0647 267.0472 15.08845440 73074,6917.864,95.437,540.496,538.962,0.0
54763.0,STARLINK-5191,PAYLOAD,2024-04-01 10:09:06,15.08860594,0.0001245,53.217,339.3147,87.6849,272.4286,0.00042083,6.42e-05,0.0,0 STARLINK-5191,1 54763U 22175F   24092.42299597  .00006420  00000-0  42083-3 0  9998,2 54763  53.2170 339.3147 0001245  87.6849 272.4286 15.08860594 70980,6917.817,95.436,540.544,538.821,0.0
54763.0,STARLINK-5191,PAYLOAD,2024-04-01 19:41:26,15.08841634,0.0001335,53.2172,337.5303,99.7796,260.3347,0.00013005,1.783e-05,0.0,0 STARLINK-5191,1 54763U 22175F   24092.82044012  .00001783  00000-0  13005-3 0  9991,2 54763  53.2172 337.5303 0001335  99.7796 260.3347 15.08841634 71047,6917.875,95.437,540.664,538.817,0.0
54763.0,STARLINK-5191,PAYLOAD,2024-04-01 22:52:12,15.08839613,0.0001156,53.2168,336.9346,108.1481,251.9638,0.00053101,8.173e-05,0.0,0 STARLINK-5191,1 54763U 22175F   24092.95292014  .00008173  00000-0  53101-3 0  9993,2 54763  53.2168 336.9346 0001156 108.1481 251.9638 15.08839613 73224,6917.882,95.438,540.546,538.947,0.0
54763.0,STARLINK-5191,PAYLOAD,2024-04-02 19:32:13,15.08838272,0.0001256,53.2179,333.0696,102.4878,257.6254,0.00051417,7.904e-05,0.0,0 STARLINK-5191,1 54763U 22175F   24093.81404709  .00007904  00000-0  51417-3 0  9994,2 54763  53.2179 333.0696 0001256 102.4878 257.6254 15.08838272 71191,6917.886,95.438,540.62,538.882,0.0
54763.0,STARLINK-5191,PAYLOAD,2024-04-02 22:43:00,15.08836297,0.0001264,53.2184,332.4765,90.546,269.5677,0.00037097,5.62e-05,0.0,0 STARLINK-5191,1 54763U 22175F   24093.94652848  .00005620  00000-0  37097-3 0  9998,2 54763  53.2184 332.4765 0001264  90.5460 269.5677 15.08836297 73378,6917.892,95.438,540.631,538.882,0.0
54763.0,STARLINK-5191,PAYLOAD,2024-04-03 08:15:18,15.08841992,0.0001233,53.2184,330.6929,91.9332,268.1801,0.00039378,5.985e-05,0.0,0 STARLINK-5191,1 54763U 22175F   24094.34396811  .00005985  00000-0  39378-3 0  9996,2 54763  53.2184 330.6929 0001233  91.9332 268.1801 15.08841992 73438,6917.874,95.437,540.592,538.886,0.0
54763.0,STARLINK-5191,PAYLOAD,2024-04-03 19:23:01,15.08836535,0.0001275,53.2182,328.6136,94.8612,265.2526,0.00015096,2.115e-05,0.0,0 STARLINK-5191,1 54763U 22175F   24094.80765089  .00002115  00000-0  15096-3 0  9997,2 54763  53.2182 328.6136 0001275  94.8612 265.2526 15.08836535 71349,6917.891,95.438,540.638,538.874,0.0
54763.0,STARLINK-5191,PAYLOAD,2024-04-03 22:33:47,15.08838874,0.0001347,53.2185,328.0174,95.676,264.4385,0.00020226,2.932e-05,0.0,0 STARLINK-5191,1 54763U 22175F   24094.94013045  .00002932  00000-0  20226-3 0  9998,2 54763  53.2185 328.0174 0001347  95.6760 264.4385 15.08838874 73525,6917.884,95.438,540.681,538.817,0.0
54763.0,STARLINK-5191,PAYLOAD,2024-04-04 08:06:05,15.08843342,0.0001372,53.2187,326.2337,101.8049,258.3097,0.00022869,3.354e-05,0.0,0 STARLINK-5191,1 54763U 22175F   24095.33756851  .00003354  00000-0  22869-3 0  9995,2 54763  53.2187 326.2337 0001372 101.8049 258.3097 15.08843342 73580,6917.87,95.437,540.684,538.786,0.0
